WORLDVIEW-1 (WV-1)      
1 32060U 07041A   26072.90273866  .00008926  00000+0  36453-3 0  9999
2 32060  97.3824 194.0222 0003347 128.0866 232.0674 15.24615389 28361
GEOEYE 1                
1 33331U 08042A   26072.92188819  .00000588  00000+0  11921-3 0  9997
2 33331  98.1200 148.0546 0003706  16.4564 343.6759 14.64773089936201
WORLDVIEW-2 (WV-2)      
1 35946U 09055A   26072.90197053  .00000159  00000+0  67026-4 0  9996
2 35946  98.4686 147.7074 0005217 134.8366 225.3246 14.37912466861952
TANDEM-X                
1 36605U 10030A   26072.55097515  .00001682  00000+0  83268-4 0  9995
2 36605  97.4475  81.6192 0001909 101.4604 258.6845 15.19145167872128
LUCH-5A                 
1 37951U 11074B   26072.81710829 -.00000046  00000+0  00000+0 0  9990
2 37951   8.5104  75.2044 0003411 262.4684 295.0348  1.00268953 52099
LUCH-5B                 
1 38977U 12061A   26072.98168358 -.00000133  00000+0  00000+0 0  9995
2 38977  10.2781  50.8078 0003244 227.3464 230.5377  1.00271953 48652
LUCH-5V                 
1 39727U 14023A   26072.96386081 -.00000266  00000+0  00000+0 0  9999
2 39727   4.8975  70.6733 0003140 297.1295 245.4574  1.00269069 43407
WORLDVIEW-3 (WV-3)      
1 40115U 14048A   26072.95362094  .00001114  00000+0  13739-3 0  9995
2 40115  97.8627 149.0901 0000233 180.2093 179.9122 14.84845969627775
YAOGAN-30 03A           
1 43028U 17075A   26072.59970751  .00003956  00000+0  29570-3 0  9995
2 43028  34.9941 133.0268 0002217 207.1099 152.9493 15.02274662452865
YAOGAN-30 03B           
1 43029U 17075B   26072.84807819  .00002627  00000+0  19784-3 0  9998
2 43029  34.9936 131.1056 0002692 131.7298 228.3641 15.02152547453012
YAOGAN-30 03C           
1 43030U 17075C   26072.62652002  .00003825  00000+0  28654-3 0  9995
2 43030  34.9945 132.4019 0002654 283.5763  76.4649 15.02202777453042
PAZ                     
1 43215U 18020A   26072.99319895  .00002196  00000+0  10771-3 0  9992
2 43215  97.4462  81.7323 0001722  88.5098 271.6334 15.19158174446555
YAOGAN-30 06C           
1 44451U 19045C   26072.77168889  .00003747  00000+0  28075-3 0  9993
2 44451  34.9926 190.8564 0001127 269.6978  90.3600 15.02204198362195
YAOGAN-34 01            
1 48340U 21037A   26072.99092328 -.00000014  00000+0  12672-3 0  9997
2 48340  63.4044  30.9154 0079282 356.7631   3.2873 13.45464033239193
YAOGAN-34 02            
1 52084U 22027A   26072.96298236 -.00000059  00000+0  52638-4 0  9996
2 52084  63.3959  85.7443 0043567 351.6967   8.3333 13.45429288196102
LUCH-5X (OLYMP-K 2)     
1 55841U 23031A   26072.58237895  .00000033  00000+0  00000+0 0  9990
2 55841   0.0279  89.0645 0001458 119.8966 233.8673  1.00270407 10973
KONDOR-FKA NO. 1        
1 56756U 23074A   26072.94426980  .00005758  00000+0  27241-3 0  9997
2 56756  97.4400 268.8789 0001625  82.9203 277.2216 15.19753823155227
