[ {"OBJECT_NAME": "YAOGAN-30 03A", "NORAD_CAT_ID": 43028, "MEAN_MOTION": 15.02274662, "ECCENTRICITY": 0.0002217, "INCLINATION": 34.9941, "RA_OF_ASC_NODE": 133.0268, "ARG_OF_PERICENTER": 207.1099, "MEAN_ANOMALY": 152.9493, "BSTAR": 0.00029570000000000003, "EPOCH": "2026-03-13T14:23:34"}, {"OBJECT_NAME": "YAOGAN-34 02", "NORAD_CAT_ID": 52084, "MEAN_MOTION": 13.45429288, "ECCENTRICITY": 0.0043567, "INCLINATION": 63.3959, "RA_OF_ASC_NODE": 85.7443, "ARG_OF_PERICENTER": 351.6967, "MEAN_ANOMALY": 8.3333, "BSTAR": 5.2638e-05, "EPOCH": "2026-03-13T23:06:41"}, {"OBJECT_NAME": "YAOGAN-30 06C", "NORAD_CAT_ID": 44451, "MEAN_MOTION": 15.02204198, "ECCENTRICITY": 0.0001127, "INCLINATION": 34.9926, "RA_OF_ASC_NODE": 190.8564, "ARG_OF_PERICENTER": 269.6978, "MEAN_ANOMALY": 90.36, "BSTAR": 0.00028075, "EPOCH": "2026-03-13T18:31:13"}, {"OBJECT_NAME": "YAOGAN-30 03B", "NORAD_CAT_ID": 43029, "MEAN_MOTION": 15.02152547, "ECCENTRICITY": 0.0002692, "INCLINATION": 34.9936, "RA_OF_ASC_NODE": 131.1056, "ARG_OF_PERICENTER": 131.7298, "MEAN_ANOMALY": 228.3641, "BSTAR": 0.00019784, "EPOCH": "2026-03-13T20:21:13"}, {"OBJECT_NAME": "YAOGAN-34 01", "NORAD_CAT_ID": 48340, "MEAN_MOTION": 13.45464033, "ECCENTRICITY": 0.0079282, "INCLINATION": 63.4044, "RA_OF_ASC_NODE": 30.9154, "ARG_OF_PERICENTER": 356.7631, "MEAN_ANOMALY": 3.2873, "BSTAR": 0.00012672, "EPOCH": "2026-03-13T23:46:55"}, {"OBJECT_NAME": "YAOGAN-30 03C", "NORAD_CAT_ID": 43030, "MEAN_MOTION": 15.02202777, "ECCENTRICITY": 0.0002654, "INCLINATION": 34.9945, "RA_OF_ASC_NODE": 132.4019, "ARG_OF_PERICENTER": 283.5763, "MEAN_ANOMALY": 76.4649, "BSTAR": 0.00028654, "EPOCH": "2026-03-13T15:02:11"}, {"OBJECT_NAME": "WORLDVIEW-3 (WV-3)", "NORAD_CAT_ID": 40115, "MEAN_MOTION": 14.84845969, "ECCENTRICITY": 2.33e-05, "INCLINATION": 97.8627, "RA_OF_ASC_NODE": 149.0901, "ARG_OF_PERICENTER": 180.2093, "MEAN_ANOMALY": 179.9122, "BSTAR": 0.00013739, "EPOCH": "2026-03-13T22:53:12"}, {"OBJECT_NAME": "WORLDVIEW-2 (WV-2)", "NORAD_CAT_ID": 35946, "MEAN_MOTION": 14.37912466, "ECCENTRICITY": 0.0005217, "INCLINATION": 98.4686, "RA_OF_ASC_NODE": 147.7074, "ARG_OF_PERICENTER": 134.8366, "MEAN_ANOMALY": 225.3246, "BSTAR": 6.7026e-05, "EPOCH": "2026-03-13T21:38:50"}, {"OBJECT_NAME": "WORLDVIEW-1 (WV-1)", "NORAD_CAT_ID": 32060, "MEAN_MOTION": 15.24615389, "ECCENTRICITY": 0.0003347, "INCLINATION": 97.3824, "RA_OF_ASC_NODE": 194.0222, "ARG_OF_PERICENTER": 128.0866, "MEAN_ANOMALY": 232.0674, "BSTAR": 0.00036453, "EPOCH": "2026-03-13T21:39:56"}, {"OBJECT_NAME": "GEOEYE 1", "NORAD_CAT_ID": 33331, "MEAN_MOTION": 14.64773089, "ECCENTRICITY": 0.0003706, "INCLINATION": 98.12, "RA_OF_ASC_NODE": 148.0546, "ARG_OF_PERICENTER": 16.4564, "MEAN_ANOMALY": 343.6759, "BSTAR": 0.00011921, "EPOCH": "2026-03-13T22:07:31"}, {"OBJECT_NAME": "LUCH-5X (OLYMP-K 2)", "NORAD_CAT_ID": 55841, "MEAN_MOTION": 1.00270407, "ECCENTRICITY": 0.0001458, "INCLINATION": 0.0279, "RA_OF_ASC_NODE": 89.0645, "ARG_OF_PERICENTER": 119.8966, "MEAN_ANOMALY": 233.8673, "BSTAR": 0.0, "EPOCH": "2026-03-13T13:58:37"}, {"OBJECT_NAME": "LUCH 5A (SDCM/PRN 140)", "NORAD_CAT_ID": 37951, "MEAN_MOTION": 1.00268953, "ECCENTRICITY": 0.0003411, "INCLINATION": 8.5104, "RA_OF_ASC_NODE": 75.2044, "ARG_OF_PERICENTER": 262.4684, "MEAN_ANOMALY": 295.0348, "BSTAR": 0.0, "EPOCH": "2026-03-13T19:36:38"}, {"OBJECT_NAME": "LUCH 5B (SDCM/PRN 125)", "NORAD_CAT_ID": 38977, "MEAN_MOTION": 1.00271953, "ECCENTRICITY": 0.0003244, "INCLINATION": 10.2781, "RA_OF_ASC_NODE": 50.8078, "ARG_OF_PERICENTER": 227.3464, "MEAN_ANOMALY": 230.5377, "BSTAR": 0.0, "EPOCH": "2026-03-13T23:33:37"}, {"OBJECT_NAME": "LUCH 5V (SDCM/PRN 141)", "NORAD_CAT_ID": 39727, "MEAN_MOTION": 1.00269069, "ECCENTRICITY": 0.000314, "INCLINATION": 4.8975, "RA_OF_ASC_NODE": 70.6733, "ARG_OF_PERICENTER": 297.1295, "MEAN_ANOMALY": 245.4574, "BSTAR": 0.0, "EPOCH": "2026-03-13T23:07:57"}, {"OBJECT_NAME": "TANDEM-X", "NORAD_CAT_ID": 36605, "MEAN_MOTION": 15.19145167, "ECCENTRICITY": 0.0001909, "INCLINATION": 97.4475, "RA_OF_ASC_NODE": 81.6192, "ARG_OF_PERICENTER": 101.4604, "MEAN_ANOMALY": 258.6845, "BSTAR": 8.3268e-05, "EPOCH": "2026-03-13T13:13:24"}, {"OBJECT_NAME": "PAZ", "NORAD_CAT_ID": 43215, "MEAN_MOTION": 15.19158174, "ECCENTRICITY": 0.0001722, "INCLINATION": 97.4462, "RA_OF_ASC_NODE": 81.7323, "ARG_OF_PERICENTER": 88.5098, "MEAN_ANOMALY": 271.6334, "BSTAR": 0.00010771, "EPOCH": "2026-03-13T23:50:12"}, {"OBJECT_NAME": "KONDOR-FKA NO. 1", "NORAD_CAT_ID": 56756, "MEAN_MOTION": 15.19753823, "ECCENTRICITY": 0.0001625, "INCLINATION": 97.44, "RA_OF_ASC_NODE": 268.8789, "ARG_OF_PERICENTER": 82.9203, "MEAN_ANOMALY": 277.2216, "BSTAR": 0.00027241, "EPOCH": "2026-03-13T22:39:44"}]